NORAD_CAT_ID,OBJECT_NAME,OBJECT_TYPE,EPOCH,MEAN_MOTION,ECCENTRICITY,INCLINATION,RA_OF_ASC_NODE,ARG_OF_PERICENTER,MEAN_ANOMALY,BSTAR,MEAN_MOTION_DOT,MEAN_MOTION_DDOT,TLE_LINE0,TLE_LINE1,TLE_LINE2,SEMIMAJOR_AXIS,PERIOD,APOGEE,PERIGEE,DECAYED
55932.0,STARLINK-5848,PAYLOAD,2023-08-25 23:41:35,15.69918036,0.0003018,69.998,87.7764,262.5017,97.5836,5.2691e-06,4.21e-06,0.0,0 STARLINK-5848,1 55932U 23037U   23237.98721952  .00000421  00000-0  52691-5 0  9994,2 55932  69.9980  87.7764 0003018 262.5017  97.5836 15.69918036 25497,6737.268,91.725,361.167,357.1,0.0
55932.0,STARLINK-5848,PAYLOAD,2023-08-26 18:02:37,15.69920246,0.0003558,69.9976,85.6271,270.2745,89.8043,-7.3238e-06,-1.093e-05,0.0,0 STARLINK-5848,1 55932U 23037U   23238.75182170 -.00001093  00000-0 -73238-5 0  9991,2 55932  69.9976  85.6271 0003558 270.2745  89.8043 15.69920246 25956,6737.262,91.724,361.524,356.73,0.0
55932.0,STARLINK-5848,PAYLOAD,2023-08-27 00:09:37,15.69924303,0.0003679,69.9978,84.909,264.1867,95.8909,1.0332e-05,1.03e-05,0.0,0 STARLINK-5848,1 55932U 23037U   23239.00668058  .00001030  00000-0  10332-4 0  9998,2 55932  69.9978  84.9090 0003679 264.1867  95.8909 15.69924303 25990,6737.251,91.724,361.594,356.637,0.0
55932.0,STARLINK-5848,PAYLOAD,2023-08-27 18:30:39,15.69919338,0.0003528,69.9969,82.759,266.8158,93.2634,8.6421e-06,8.26e-06,0.0,0 STARLINK-5848,1 55932U 23037U   23239.77128535  .00000826  00000-0  86421-5 0  9998,2 55932  69.9969  82.7590 0003528 266.8158  93.2634 15.69919338 25771,6737.265,91.724,361.507,356.753,0.0
55932.0,STARLINK-5848,PAYLOAD,2023-08-28 02:09:24,15.69920222,0.0003676,69.997,81.8646,271.029,89.0485,9.9365e-06,9.82e-06,0.0,0 STARLINK-5848,1 55932U 23037U   23240.08986854  .00000982  00000-0  99365-5 0  9994,2 55932  69.9970  81.8646 0003676 271.0290  89.0485 15.69920222 26169,6737.262,91.724,361.604,356.651,0.0
55932.0,STARLINK-5848,PAYLOAD,2023-08-28 15:55:11,15.69913892,0.0003561,69.9967,80.253,269.0625,91.0163,1.1475e-05,1.167e-05,0.0,0 STARLINK-5848,1 55932U 23037U   23240.66332214  .00001167  00000-0  11475-4 0  9994,2 55932  69.9967  80.2530 0003561 269.0625  91.0163 15.69913892 25915,6737.28,91.725,361.544,356.746,0.0
55932.0,STARLINK-5848,PAYLOAD,2023-08-29 01:05:41,15.69927967,0.0003654,69.9968,79.1776,264.3842,95.6937,8.6536e-06,8.28e-06,0.0,0 STARLINK-5848,1 55932U 23037U   23241.04561479  .00000828  00000-0  86536-5 0  9998,2 55932  69.9968  79.1776 0003654 264.3842  95.6937 15.69927967 26319,6737.24,91.724,361.567,356.643,0.0
55932.0,STARLINK-5848,PAYLOAD,2023-08-29 16:23:12,15.69921794,0.0003419,69.9976,77.3866,268.7626,91.3178,1.6128e-06,-1.9e-07,0.0,0 STARLINK-5848,1 55932U 23037U   23241.68278861 -.00000019  00000-0  16128-5 0  9991,2 55932  69.9976  77.3866 0003419 268.7626  91.3178 15.69921794 26418,6737.258,91.724,361.426,356.819,0.0
55932.0,STARLINK-5848,PAYLOAD,2023-08-29 22:30:13,15.69915719,0.0003697,69.9973,76.6697,268.8486,91.2287,-5.1799e-06,-8.36e-06,0.0,0 STARLINK-5848,1 55932U 23037U   23241.93766141 -.00000836  00000-0 -51799-5 0  9993,2 55932  69.9973  76.6697 0003697 268.8486  91.2287 15.69915719 26456,6737.275,91.725,361.631,356.649,0.0
55932.0,STARLINK-5848,PAYLOAD,2023-08-31 14:00:01,15.66533572,0.0003593,69.9991,72.0539,266.0901,21.4253,-0.0097745,-0.00931483,0.0,0 STARLINK-5848,1 55932U 23037U   23243.58334491 -.00931483  00000-0 -97745-2 0  9994,2 55932  69.9991  72.0539 0003593 266.0901  21.4253 15.66533572 26715,6746.969,91.923,371.258,366.41,0.0
55932.0,STARLINK-5848,PAYLOAD,2023-08-31 22:00:01,15.65840462,0.0003643,69.9991,71.1216,274.1575,92.2929,-0.0094272,-0.00865699,0.0,0 STARLINK-5848,1 55932U 23037U   23243.91668981 -.00865699  00000-0 -94272-2 0  9992,2 55932  69.9991  71.1216 0003643 274.1575  92.2929 15.65840462  6026,6748.96,91.963,373.283,368.366,0.0
55932.0,STARLINK-5848,PAYLOAD,2023-09-01 14:00:01,15.64575428,0.000349,69.9992,69.2603,268.9211,252.7949,-0.01059,-0.00932711,0.0,0 STARLINK-5848,1 55932U 23037U   23244.58334491 -.00932711  00000-0 -10590-1 0  9992,2 55932  69.9992  69.2603 0003490 268.9211 252.7949 15.64575428 26868,6752.597,92.038,376.819,372.105,0.0
55932.0,STARLINK-5848,PAYLOAD,2023-09-01 22:00:00,15.63887019,0.0003504,69.9989,68.3309,274.1211,324.1143,-0.010219,-0.00880551,0.0,0 STARLINK-5848,1 55932U 23037U   23244.91667824 -.00880551  00000-0 -10219-1 0  9990,2 55932  69.9989  68.3309 0003504 274.1211 324.1143 15.63887019  6063,6754.579,92.078,378.81,374.077,0.0
55932.0,STARLINK-5848,PAYLOAD,2023-09-02 14:00:01,15.62621896,0.0003625,69.9995,66.4748,270.7121,118.164,-0.011494,-0.00936793,0.0,0 STARLINK-5848,1 55932U 23037U   23245.58334491 -.00936793  00000-0 -11494-1 0  9991,2 55932  69.9995  66.4748 0003625 270.7121 118.1640 15.62621896  5972,6758.224,92.153,382.539,377.639,0.0
55932.0,STARLINK-5848,PAYLOAD,2023-09-02 22:00:00,15.61926105,0.0003522,69.9996,65.5481,277.2845,185.7676,-0.010988,-0.00876989,0.0,0 STARLINK-5848,1 55932U 23037U   23245.91667824 -.00876989  00000-0 -10988-1 0  9994,2 55932  69.9996  65.5481 0003522 277.2845 185.7676 15.61926105 27072,6760.231,92.194,384.477,379.715,0.0
55932.0,STARLINK-5848,PAYLOAD,2023-09-03 14:00:01,15.60662614,0.0003499,69.9996,63.6977,268.8887,340.1088,-0.012385,-0.0093546,0.0,0 STARLINK-5848,1 55932U 23037U   23246.58334491 -.00935460  00000-0 -12385-1 0  9992,2 55932  69.9996  63.6977 0003499 268.8887 340.1088 15.60662614 27183,6763.879,92.269,388.111,383.377,0.0
55932.0,STARLINK-5848,PAYLOAD,2023-09-04 14:00:01,15.5870783,0.0003481,70.0002,60.9289,273.1134,188.9617,-0.013374,-0.00937175,0.0,0 STARLINK-5848,1 55932U 23037U   23247.58334491 -.00937175  00000-0 -13374-1 0  9997,2 55932  70.0002  60.9289 0003481 273.1134 188.9617 15.58707830  5869,6769.533,92.384,393.754,389.041,0.0
55932.0,STARLINK-5848,PAYLOAD,2023-09-04 22:00:00,15.58011531,0.0003492,70.0,60.0077,278.0573,253.499,-0.012728,-0.00874523,0.0,0 STARLINK-5848,1 55932U 23037U   23247.91667824 -.00874523  00000-0 -12728-1 0  9992,2 55932  70.0000  60.0077 0003492 278.0573 253.4990 15.58011531 27385,6771.55,92.426,395.779,391.05,0.0
55932.0,STARLINK-5848,PAYLOAD,2023-09-05 14:00:01,15.56756892,0.0003558,70.0002,58.168,270.6193,37.492,-0.014557,-0.00946824,0.0,0 STARLINK-5848,1 55932U 23037U   23248.58334491 -.00946824  00000-0 -14557-1 0  9993,2 55932  70.0002  58.1680 0003558 270.6193  37.4920 15.56756892 27493,6775.187,92.5,399.463,394.642,0.0
55932.0,STARLINK-5848,PAYLOAD,2023-09-06 14:00:01,15.54797192,0.0003458,70.0002,55.4157,274.6404,232.471,-0.015628,-0.00945296,0.0,0 STARLINK-5848,1 55932U 23037U   23249.58334491 -.00945296  00000-0 -15628-1 0  9996,2 55932  70.0002  55.4157 0003458 274.6404 232.4710 15.54797192 27647,6780.879,92.617,405.089,400.399,0.0
55932.0,STARLINK-5848,PAYLOAD,2023-09-06 22:00:00,15.54102582,0.0003465,69.9997,54.4999,278.7265,293.1695,-0.014811,-0.00879536,0.0,0 STARLINK-5848,1 55932U 23037U   23249.91667824 -.00879536  00000-0 -14811-1 0  9998,2 55932  69.9997  54.4999 0003465 278.7265 293.1695 15.54102582  6015,6782.9,92.658,407.115,402.414,0.0
55932.0,STARLINK-5848,PAYLOAD,2023-09-07 14:00:01,15.52841923,0.0003683,70.0002,52.671,274.0906,64.9776,-0.016837,-0.00961452,0.0,0 STARLINK-5848,1 55932U 23037U   23250.58334491 -.00961452  00000-0 -16837-1 0  9993,2 55932  70.0002  52.6710 0003683 274.0906  64.9776 15.52841923 27800,6786.57,92.733,410.935,405.936,0.0
55932.0,STARLINK-5848,PAYLOAD,2023-09-07 22:00:00,15.52141463,0.0003702,69.9998,51.7577,280.3277,121.1794,-0.015729,-0.00870696,0.0,0 STARLINK-5848,1 55932U 23037U   23250.91667824 -.00870696  00000-0 -15729-1 0  9997,2 55932  69.9998  51.7577 0003702 280.3277 121.1794 15.52141463  6024,6788.612,92.775,412.99,407.964,0.0
55932.0,STARLINK-5848,PAYLOAD,2023-09-08 06:00:02,15.5129013,0.0003606,69.9998,50.8454,273.7707,189.4715,-0.0017601,-0.00102473,0.0,0 STARLINK-5848,1 55932U 23037U   23251.25002315 -.00102473  00000-0 -17601-2 0  9996,2 55932  69.9998  50.8454 0003606 273.7707 189.4715 15.51290130 27900,6791.095,92.826,415.409,410.511,0.0
55932.0,STARLINK-5848,PAYLOAD,2023-09-08 14:00:01,15.51253107,0.0003684,69.9999,49.934,274.8022,249.3155,-0.00080882,-0.00047443,0.0,0 STARLINK-5848,1 55932U 23037U   23251.58334491 -.00047443  00000-0 -80882-3 0  9992,2 55932  69.9999  49.9340 0003684 274.8022 249.3155 15.51253107 27954,6791.203,92.828,415.57,410.566,0.0
55932.0,STARLINK-5848,PAYLOAD,2023-09-08 22:00:00,15.5122418,0.000366,69.9997,49.0227,279.1011,305.944,0.00014519,8.373e-05,0.0,0 STARLINK-5848,1 55932U 23037U   23251.91667824  .00008373  00000-0  14519-3 0  9999,2 55932  69.9997  49.0227 0003660 279.1011 305.9440 15.51224180  6016,6791.288,92.83,415.638,410.667,0.0
55932.0,STARLINK-5848,PAYLOAD,2023-09-09 06:00:00,15.51175737,0.000357,70.0,48.1113,273.0355,12.9412,0.0011647,0.00068728,0.0,0 STARLINK-5848,1 55932U 23037U   23252.25001157  .00068728  00000-0  11647-2 0  9996,2 55932  70.0000  48.1113 0003570 273.0355  12.9412 15.51175737 28068,6791.429,92.833,415.719,410.87,0.0
55932.0,STARLINK-5848,PAYLOAD,2023-09-09 14:00:01,15.51254399,0.0003648,70.0002,47.2001,272.8797,73.9731,-0.00068731,-0.00040377,0.0,0 STARLINK-5848,1 55932U 23037U   23252.58334491 -.00040377  00000-0 -68731-3 0  9991,2 55932  70.0002  47.2001 0003648 272.8797  73.9731 15.51254399  5966,6791.2,92.828,415.542,410.587,0.0
55932.0,STARLINK-5848,PAYLOAD,2023-09-09 22:00:00,15.51235722,0.0003667,69.9996,46.2885,276.9316,130.857,-0.00021796,-0.00012953,0.0,0 STARLINK-5848,1 55932U 23037U   23252.91667824 -.00012953  00000-0 -21796-3 0  9996,2 55932  69.9996  46.2885 0003667 276.9316 130.8570 15.51235722 28167,6791.254,92.829,415.609,410.629,0.0
55932.0,STARLINK-5848,PAYLOAD,2023-09-10 14:00:01,15.51241535,0.0003678,70.0002,44.4655,270.2536,259.3379,-0.00045964,-0.0002709,0.0,0 STARLINK-5848,1 55932U 23037U   23253.58334491 -.00027090  00000-0 -45964-3 0  9992,2 55932  70.0002  44.4655 0003678 270.2536 259.3379 15.51241535  5962,6791.237,92.829,415.6,410.604,0.0
